{"fetched_at":"2026-03-29T02:12:04Z","count":15717,"tles":[{"name":"STARLINK-34126","line1":"1 64083U 25107V   26087.29782676  .00026596  00000+0  97208-3 0  9992","line2":"2 64083  43.0044  96.6920 0001553 280.6339  79.4338 15.27594419 47872","category":"Starlink"}]}